start=new Date('2022-12-11T00:00:00.000Z').valueOf();
sats=[{"RCS_SIZE":"LARGE","OBJECT_TYPE":"PAYLOAD","EPHEMERIS_TYPE":"0","CENTER_NAME":"EARTH","TLE_LINE2":"2 50183  53.2146 168.1773 0002591  47.2404 312.8806 15.08824667 57772","SITE":"AFWTR","OBJECT_NAME":"STARLINK-3281","OBJECT_ID":"2021-125AD","COUNTRY_CODE":"US","EPOCH":"2022-12-10T19:54:51.931008","ELEMENT_SET_NO":"999","APOAPSIS":"541.585","MEAN_MOTION_DDOT":"0.0000000000000","MEAN_ANOMALY":"312.8806","PERIAPSIS":"538.000","REV_AT_EPOCH":"5777","MEAN_ELEMENT_THEORY":"SGP4","FILE":"3688965","NORAD_CAT_ID":"50183","MEAN_MOTION_DOT":"-0.00001885","ECCENTRICITY":"0.00025910","ARG_OF_PERICENTER":"47.2404","PERIOD":"95.439","TLE_LINE1":"1 50183U 21125AD  22344.82976772 -.00001885  00000-0 -10038-3 0  9990","BSTAR":"-0.00010038000000","CLASSIFICATION_TYPE":"U","GP_ID":"219977466","DECAY_DATE":null,"INCLINATION":"53.2146","TIME_SYSTEM":"UTC","SEMIMAJOR_AXIS":"6917.927","LAUNCH_DATE":"2021-12-18","REF_FRAME":"TEME","RA_OF_ASC_NODE":"168.1773","MEAN_MOTION":"15.08824667"},{"TLE_LINE1":"1 50185U 21125AF  22344.83711869  .00001561  00000-0  11620-3 0  9994","PERIOD":"95.438","ARG_OF_PERICENTER":"47.8464","ECCENTRICITY":"0.00039340","MEAN_ELEMENT_THEORY":"SGP4","FILE":"3688965","MEAN_MOTION_DOT":"0.00001561","NORAD_CAT_ID":"50185","REV_AT_EPOCH":"5773","PERIAPSIS":"537.023","MEAN_ANOMALY":"312.2862","REF_FRAME":"TEME","MEAN_MOTION":"15.08840443","RA_OF_ASC_NODE":"168.1390","SEMIMAJOR_AXIS":"6917.879","LAUNCH_DATE":"2021-12-18","TIME_SYSTEM":"UTC","DECAY_DATE":null,"INCLINATION":"53.2162","CLASSIFICATION_TYPE":"U","BSTAR":"0.00011620000000","GP_ID":"219977716","CENTER_NAME":"EARTH","EPHEMERIS_TYPE":"0","OBJECT_TYPE":"PAYLOAD","RCS_SIZE":"LARGE","APOAPSIS":"542.466","MEAN_MOTION_DDOT":"0.0000000000000","ELEMENT_SET_NO":"999","EPOCH":"2022-12-10T20:05:27.054816","COUNTRY_CODE":"US","OBJECT_NAME":"STARLINK-3279","SITE":"AFWTR","OBJECT_ID":"2021-125AF","TLE_LINE2":"2 50185  53.2162 168.1390 0003934  47.8464 312.2862 15.08840443 57733"},{"OBJECT_TYPE":"PAYLOAD","RCS_SIZE":"LARGE","CENTER_NAME":"EARTH","EPHEMERIS_TYPE":"0","OBJECT_NAME":"STARLINK-3274","SITE":"AFWTR","OBJECT_ID":"2021-125AG","TLE_LINE2":"2 50186  53.2177 177.7798 0002951  41.7359 318.3858 15.08835361 57119","ELEMENT_SET_NO":"999","APOAPSIS":"541.801","MEAN_MOTION_DDOT":"0.0000000000000","COUNTRY_CODE":"US","EPOCH":"2022-12-10T22:00:42.982560","MEAN_ELEMENT_THEORY":"SGP4","MEAN_MOTION_DOT":"-0.00001275","FILE":"3688861","NORAD_CAT_ID":"50186","PERIAPSIS":"537.718","MEAN_ANOMALY":"318.3858","REV_AT_EPOCH":"5711","ARG_OF_PERICENTER":"41.7359","PERIOD":"95.438","TLE_LINE1":"1 50186U 21125AG  22344.91716415 -.00001275  00000-0 -62011-4 0  9991","ECCENTRICITY":"0.00029510","BSTAR":"-0.00006201100000","CLASSIFICATION_TYPE":"U","GP_ID":"219952385","DECAY_DATE":null,"INCLINATION":"53.2177","REF_FRAME":"TEME","RA_OF_ASC_NODE":"177.7798","MEAN_MOTION":"15.08835361","TIME_SYSTEM":"UTC","SEMIMAJOR_AXIS":"6917.895","LAUNCH_DATE":"2021-12-18"},{"INCLINATION":"53.2180","DECAY_DATE":null,"GP_ID":"219951952","BSTAR":"-0.00014345000000","CLASSIFICATION_TYPE":"U","MEAN_MOTION":"15.08841973","RA_OF_ASC_NODE":"157.9401","REF_FRAME":"TEME","LAUNCH_DATE":"2021-12-18","SEMIMAJOR_AXIS":"6917.874","TIME_SYSTEM":"UTC","MEAN_MOTION_DOT":"-0.00002571","FILE":"3688861","NORAD_CAT_ID":"50187","MEAN_ELEMENT_THEORY":"SGP4","REV_AT_EPOCH":"5477","PERIAPSIS":"538.437","MEAN_ANOMALY":"300.9816","PERIOD":"95.437","TLE_LINE1":"1 50187U 21125AH  22344.87851162 -.00002571  00000-0 -14345-3 0  9992","ARG_OF_PERICENTER":"59.1361","ECCENTRICITY":"0.00018820","OBJECT_ID":"2021-125AH","OBJECT_NAME":"STARLINK-3272","SITE":"AFWTR","TLE_LINE2":"2 50187  53.2180 157.9401 0001882  59.1361 300.9816 15.08841973 54779","MEAN_MOTION_DDOT":"0.0000000000000","APOAPSIS":"541.041","ELEMENT_SET_NO":"999","EPOCH":"2022-12-10T21:05:03.403968","COUNTRY_CODE":"US","OBJECT_TYPE":"PAYLOAD","RCS_SIZE":"LARGE","CENTER_NAME":"EARTH","EPHEMERIS_TYPE":"0"},{"ELEMENT_SET_NO":"999","MEAN_MOTION_DDOT":"0.0000000000000","APOAPSIS":"541.280","COUNTRY_CODE":"US","EPOCH":"2022-12-10T17:59:35.456352","OBJECT_ID":"2021-125AJ","SITE":"AFWTR","OBJECT_NAME":"STARLINK-3275","TLE_LINE2":"2 50188  53.2154 158.5140 0002271  52.9186 307.2013 15.08852058 57898","CENTER_NAME":"EARTH","EPHEMERIS_TYPE":"0","OBJECT_TYPE":"PAYLOAD","RCS_SIZE":"LARGE","RA_OF_ASC_NODE":"158.5140","MEAN_MOTION":"15.08852058","REF_FRAME":"TEME","TIME_SYSTEM":"UTC","LAUNCH_DATE":"2021-12-18","SEMIMAJOR_AXIS":"6917.844","GP_ID":"219976966","BSTAR":"0.00019203000000","CLASSIFICATION_TYPE":"U","INCLINATION":"53.2154","DECAY_DATE":null,"ARG_OF_PERICENTER":"52.9186","PERIOD":"95.437","TLE_LINE1":"1 50188U 21125AJ  22344.74971593  .00002770  00000-0  19203-3 0  9997","ECCENTRICITY":"0.00022710","MEAN_MOTION_DOT":"0.00002770","FILE":"3688965","NORAD_CAT_ID":"50188","MEAN_ELEMENT_THEORY":"SGP4","MEAN_ANOMALY":"307.2013","PERIAPSIS":"538.137","REV_AT_EPOCH":"5789"},{"MEAN_MOTION_DOT":"-0.00000682","FILE":"3688861","NORAD_CAT_ID":"50189","MEAN_ELEMENT_THEORY":"SGP4","PERIAPSIS":"537.727","MEAN_ANOMALY":"313.7523","REV_AT_EPOCH":"5725","ARG_OF_PERICENTER":"46.3711","PERIOD":"95.438","TLE_LINE1":"1 50189U 21125AK  22344.88495578 -.00000682  00000-0 -24703-4 0  9991","ECCENTRICITY":"0.00029240","GP_ID":"219951961","BSTAR":"-0.00002470300000","CLASSIFICATION_TYPE":"U","INCLINATION":"53.2164","DECAY_DATE":null,"MEAN_MOTION":"15.08838487","RA_OF_ASC_NODE":"167.9284","REF_FRAME":"TEME","TIME_SYSTEM":"UTC","LAUNCH_DATE":"2021-12-18","SEMIMAJOR_AXIS":"6917.885","OBJECT_TYPE":"PAYLOAD","RCS_SIZE":"LARGE","CENTER_NAME":"EARTH","EPHEMERIS_TYPE":"0","OBJECT_ID":"2021-125AK","SITE":"AFWTR","OBJECT_NAME":"STARLINK-3276","TLE_LINE2":"2 50189  53.2164 167.9284 0002924  46.3711 313.7523 15.08838487 57257","ELEMENT_SET_NO":"999","MEAN_MOTION_DDOT":"0.0000000000000","APOAPSIS":"541.773","COUNTRY_CODE":"US","EPOCH":"2022-12-10T21:14:20.179392"},{"MEAN_ELEMENT_THEORY":"SGP4","MEAN_MOTION_DOT":"0.00002789","FILE":"3688861","NORAD_CAT_ID":"50190","PERIAPSIS":"537.321","MEAN_ANOMALY":"307.4903","REV_AT_EPOCH":"5738","ARG_OF_PERICENTER":"52.6406","PERIOD":"95.437","TLE_LINE1":"1 50190U 21125AL  22344.86747430  .00002789  00000-0  19329-3 0  9993","ECCENTRICITY":"0.00034870","BSTAR":"0.00019329000000","CLASSIFICATION_TYPE":"U","GP_ID":"219952388","DECAY_DATE":null,"INCLINATION":"53.2163","REF_FRAME":"TEME","RA_OF_ASC_NODE":"158.0030","MEAN_MOTION":"15.08843986","TIME_SYSTEM":"UTC","SEMIMAJOR_AXIS":"6917.868","LAUNCH_DATE":"2021-12-18","OBJECT_TYPE":"PAYLOAD","RCS_SIZE":"LARGE","CENTER_NAME":"EARTH","EPHEMERIS_TYPE":"0","SITE":"AFWTR","OBJECT_NAME":"STARLINK-3268","OBJECT_ID":"2021-125AL","TLE_LINE2":"2 50190  53.2163 158.0030 0003487  52.6406 307.4903 15.08843986 57380","ELEMENT_SET_NO":"999","APOAPSIS":"542.145","MEAN_MOTION_DDOT":"0.0000000000000","COUNTRY_CODE":"US","EPOCH":"2022-12-10T20:49:09.779520"},{"RCS_SIZE":"LARGE","OBJECT_TYPE":"PAYLOAD","EPHEMERIS_TYPE":"0","CENTER_NAME":"EARTH","TLE_LINE2":"2 50191  53.2153 178.2495 0003142  35.0210 325.0989 15.08844040 57578","SITE":"AFWTR","OBJECT_NAME":"STARLINK-3273","OBJECT_ID":"2021-125AM","EPOCH":"2022-12-10T19:27:01.917504","COUNTRY_CODE":"US","APOAPSIS":"541.907","MEAN_MOTION_DDOT":"0.0000000000000","ELEMENT_SET_NO":"999","REV_AT_EPOCH":"5757","MEAN_ANOMALY":"325.0989","PERIAPSIS":"537.559","MEAN_ELEMENT_THEORY":"SGP4","MEAN_MOTION_DOT":"0.00006477","FILE":"3688965","NORAD_CAT_ID":"50191","ECCENTRICITY":"0.00031420","TLE_LINE1":"1 50191U 21125AM  22344.81043886  .00006477  00000-0  42461-3 0  9994","PERIOD":"95.437","ARG_OF_PERICENTER":"35.0210","DECAY_DATE":null,"INCLINATION":"53.2153","CLASSIFICATION_TYPE":"U","BSTAR":"0.00042461000000","GP_ID":"219978719","SEMIMAJOR_AXIS":"6917.868","LAUNCH_DATE":"2021-12-18","TIME_SYSTEM":"UTC","REF_FRAME":"TEME","RA_OF_ASC_NODE":"178.2495","MEAN_MOTION":"15.08844040"},{"OBJECT_TYPE":"PAYLOAD","RCS_SIZE":"LARGE","CENTER_NAME":"EARTH","EPHEMERIS_TYPE":"0","OBJECT_NAME":"STARLINK-3259","SITE":"AFWTR","OBJECT_ID":"2021-125AN","TLE_LINE2":"2 50192  53.2172 158.3205 0003170  47.1845 312.9413 15.08834795 57851","ELEMENT_SET_NO":"999","APOAPSIS":"541.954","MEAN_MOTION_DDOT":"0.0000000000000","COUNTRY_CODE":"US","EPOCH":"2022-12-10T19:08:29.113152","MEAN_ELEMENT_THEORY":"SGP4","FILE":"3688965","NORAD_CAT_ID":"50192","MEAN_MOTION_DOT":"0.00002391","MEAN_ANOMALY":"312.9413","PERIAPSIS":"537.568","REV_AT_EPOCH":"5785","ARG_OF_PERICENTER":"47.1845","PERIOD":"95.438","TLE_LINE1":"1 50192U 21125AN  22344.79755918  .00002391  00000-0  16834-3 0  9994","ECCENTRICITY":"0.00031700","BSTAR":"0.00016834000000","CLASSIFICATION_TYPE":"U","GP_ID":"219977467","DECAY_DATE":null,"INCLINATION":"53.2172","REF_FRAME":"TEME","RA_OF_ASC_NODE":"158.3205","MEAN_MOTION":"15.08834795","TIME_SYSTEM":"UTC","SEMIMAJOR_AXIS":"6917.896","LAUNCH_DATE":"2021-12-18"},{"ARG_OF_PERICENTER":"61.0326","PERIOD":"95.441","TLE_LINE1":"1 50193U 21125AP  22344.80863886 -.00001442  00000-0 -72609-4 0  9992","ECCENTRICITY":"0.00032680","MEAN_ELEMENT_THEORY":"SGP4","NORAD_CAT_ID":"50193","FILE":"3688965","MEAN_MOTION_DOT":"-0.00001442","PERIAPSIS":"537.650","MEAN_ANOMALY":"299.0994","REV_AT_EPOCH":"5790","REF_FRAME":"TEME","RA_OF_ASC_NODE":"158.2727","MEAN_MOTION":"15.08785911","TIME_SYSTEM":"UTC","SEMIMAJOR_AXIS":"6918.046","LAUNCH_DATE":"2021-12-18","BSTAR":"-0.00007260900000","CLASSIFICATION_TYPE":"U","GP_ID":"219977717","DECAY_DATE":null,"INCLINATION":"53.2181","CENTER_NAME":"EARTH","EPHEMERIS_TYPE":"0","OBJECT_TYPE":"PAYLOAD","RCS_SIZE":"LARGE","ELEMENT_SET_NO":"999","APOAPSIS":"542.172","MEAN_MOTION_DDOT":"0.0000000000000","COUNTRY_CODE":"US","EPOCH":"2022-12-10T19:24:26.397504","SITE":"AFWTR","OBJECT_NAME":"STARLINK-3261","OBJECT_ID":"2021-125AP","TLE_LINE2":"2 50193  53.2181 158.2727 0003268  61.0326 299.0994 15.08785911 57907"}];
